NORAD_CAT_ID,OBJECT_NAME,OBJECT_TYPE,EPOCH,MEAN_MOTION,ECCENTRICITY,INCLINATION,RA_OF_ASC_NODE,ARG_OF_PERICENTER,MEAN_ANOMALY,BSTAR,MEAN_MOTION_DOT,MEAN_MOTION_DDOT,TLE_LINE0,TLE_LINE1,TLE_LINE2,SEMIMAJOR_AXIS,PERIOD,APOGEE,PERIGEE,DECAYED
53922.0,STARLINK-5002,PAYLOAD,2023-10-02 14:00:43,15.08837893,0.0001686,53.2165,345.2222,84.2418,275.8766,9.3291e-05,1.197e-05,0.0,0 STARLINK-5002,1 53922U 22119AN  23275.58383446  .00001197  00000-0  93291-4 0  9992,2 53922  53.2165 345.2222 0001686  84.2418 275.8766 15.08837893 57604,6917.887,95.438,540.918,538.585,0.0
53922.0,STARLINK-5002,PAYLOAD,2023-10-03 12:16:07,15.08855477,0.0001688,53.216,341.0591,87.9103,272.2083,0.00088596,0.00013846,0.0,0 STARLINK-5002,1 53922U 22119AN  23276.51119531  .00013846  00000-0  88596-3 0  9993,2 53922  53.2160 341.0591 0001688  87.9103 272.2083 15.08855477 57325,6917.833,95.437,540.866,538.53,0.0
53922.0,STARLINK-5002,PAYLOAD,2023-10-04 04:09:58,15.08850072,0.0001594,53.2157,338.0847,98.2513,261.866,0.00042951,6.556e-05,0.0,0 STARLINK-5002,1 53922U 22119AN  23277.17359458  .00006556  00000-0  42951-3 0  9995,2 53922  53.2157 338.0847 0001594  98.2513 261.8660 15.08850072 57429,6917.85,95.437,540.817,538.612,0.0
53922.0,STARLINK-5002,PAYLOAD,2023-10-04 10:31:30,15.08852528,0.0001623,53.2162,336.8957,100.4867,259.6308,0.00043162,6.59e-05,0.0,0 STARLINK-5002,1 53922U 22119AN  23277.43855300  .00006590  00000-0  43162-3 0  9994,2 53922  53.2162 336.8957 0001623 100.4867 259.6308 15.08852528 57886,6917.842,95.437,540.83,538.584,0.0
53922.0,STARLINK-5002,PAYLOAD,2023-10-05 02:25:22,15.08843151,0.0001661,53.2156,333.9201,104.1408,255.9769,0.00019386,2.799e-05,0.0,0 STARLINK-5002,1 53922U 22119AN  23278.10095435  .00002799  00000-0  19386-3 0  9992,2 53922  53.2156 333.9201 0001661 104.1408 255.9769 15.08843151 57560,6917.871,95.437,540.885,538.587,0.0
53922.0,STARLINK-5002,PAYLOAD,2023-10-05 13:33:04,15.08850744,0.0001823,53.2173,331.8402,87.061,273.059,0.00037019,5.61e-05,0.0,0 STARLINK-5002,1 53922U 22119AN  23278.56463351  .00005610  00000-0  37019-3 0  9996,2 53922  53.2173 331.8402 0001823  87.0610 273.0590 15.08850744 58057,6917.848,95.437,540.974,538.451,0.0
53922.0,STARLINK-5002,PAYLOAD,2023-10-06 10:13:05,15.08849659,0.0001579,53.2168,327.9751,91.3706,268.7467,0.00029865,4.469e-05,0.0,0 STARLINK-5002,1 53922U 22119AN  23279.42575457  .00004469  00000-0  29865-3 0  9994,2 53922  53.2168 327.9751 0001579  91.3706 268.7467 15.08849659 57760,6917.851,95.437,540.808,538.624,0.0
53922.0,STARLINK-5002,PAYLOAD,2023-10-06 13:23:51,15.08852431,0.0001539,53.2156,327.3795,88.9577,271.1592,0.00043181,6.593e-05,0.0,0 STARLINK-5002,1 53922U 22119AN  23279.55823404  .00006593  00000-0  43181-3 0  9993,2 53922  53.2156 327.3795 0001539  88.9577 271.1592 15.08852431 58202,6917.842,95.437,540.772,538.643,0.0
53922.0,STARLINK-5002,PAYLOAD,2023-10-06 19:45:24,15.0884113,0.000155,53.2159,326.187,85.1595,274.9574,0.00016321,2.311e-05,0.0,0 STARLINK-5002,1 53922U 22119AN  23279.82319549  .00002311  00000-0  16321-3 0  9993,2 53922  53.2159 326.1870 0001550  85.1595 274.9574 15.08841130 58247,6917.877,95.437,540.814,538.67,0.0
53922.0,STARLINK-5002,PAYLOAD,2023-10-07 13:14:38,15.08848713,0.0001635,53.2171,322.9193,90.5671,269.5508,0.00033592,5.063e-05,0.0,0 STARLINK-5002,1 53922U 22119AN  23280.55183610  .00005063  00000-0  33592-3 0  9999,2 53922  53.2171 322.9193 0001635  90.5671 269.5508 15.08848713 58355,6917.854,95.437,540.85,538.588,0.0
53922.0,STARLINK-5002,PAYLOAD,2023-10-08 03:33:07,15.08838564,0.0001608,53.2175,320.2437,94.8739,265.2437,0.0001906,2.747e-05,0.0,0 STARLINK-5002,1 53922U 22119AN  23281.14800160  .00002747  00000-0  19060-3 0  9991,2 53922  53.2175 320.2437 0001608  94.8739 265.2437 15.08838564 58024,6917.885,95.438,540.862,538.637,0.0
53922.0,STARLINK-5002,PAYLOAD,2023-10-08 09:54:39,15.08842827,0.0001558,53.2167,319.0539,90.8796,269.2375,0.00022945,3.366e-05,0.0,0 STARLINK-5002,1 53922U 22119AN  23281.41296089  .00003366  00000-0  22945-3 0  9994,2 53922  53.2167 319.0539 0001558  90.8796 269.2375 15.08842827 58489,6917.872,95.437,540.815,538.659,0.0
53922.0,STARLINK-5002,PAYLOAD,2023-10-08 19:26:58,15.0884198,0.0001601,53.2167,317.2706,93.6975,266.4201,0.00025827,3.825e-05,0.0,0 STARLINK-5002,1 53922U 22119AN  23281.81040251  .00003825  00000-0  25827-3 0  9998,2 53922  53.2167 317.2706 0001601  93.6975 266.4201 15.08841980 58547,6917.874,95.437,540.847,538.632,0.0
53922.0,STARLINK-5002,PAYLOAD,2023-10-09 08:10:03,15.08850303,0.0001711,53.2171,314.8932,96.8223,263.2964,0.00052202,8.032e-05,0.0,0 STARLINK-5002,1 53922U 22119AN  23282.34032097  .00008032  00000-0  52202-3 0  9998,2 53922  53.2171 314.8932 0001711  96.8223 263.2964 15.08850303 58202,6917.849,95.437,540.898,538.53,0.0
53922.0,STARLINK-5002,PAYLOAD,2023-10-09 09:45:26,15.08851977,0.000168,53.2169,314.5955,95.2199,264.8985,0.00055458,8.552e-05,0.0,0 STARLINK-5002,1 53922U 22119AN  23282.40656034  .00008552  00000-0  55458-3 0  9991,2 53922  53.2169 314.5955 0001680  95.2199 264.8985 15.08851977 58636,6917.844,95.437,540.871,538.547,0.0
53922.0,STARLINK-5002,PAYLOAD,2023-10-10 01:39:17,15.08849665,0.0001994,53.2169,311.6197,104.1798,255.9416,0.00029797,4.458e-05,0.0,0 STARLINK-5002,1 53922U 22119AN  23283.06895826  .00004458  00000-0  29797-3 0  9996,2 53922  53.2169 311.6197 0001994 104.1798 255.9416 15.08849665 58311,6917.851,95.437,541.095,538.336,0.0
53922.0,STARLINK-5002,PAYLOAD,2023-10-10 09:36:13,15.08845922,0.0001681,53.2164,310.1322,88.3508,271.7677,0.00017452,2.491e-05,0.0,0 STARLINK-5002,1 53922U 22119AN  23283.40015927  .00002491  00000-0  17452-3 0  9990,2 53922  53.2164 310.1322 0001681  88.3508 271.7677 15.08845922 58783,6917.862,95.437,540.89,538.564,0.0
53922.0,STARLINK-5002,PAYLOAD,2023-10-10 19:08:32,15.08841991,0.0001725,53.217,308.3491,87.2989,272.8201,1.8544e-05,7e-08,0.0,0 STARLINK-5002,1 53922U 22119AN  23283.79760168  .00000007  00000-0  18544-4 0  9991,2 53922  53.2170 308.3491 0001725  87.2989 272.8201 15.08841991 58840,6917.874,95.437,540.933,538.546,0.0
53922.0,STARLINK-5002,PAYLOAD,2023-10-11 01:30:05,15.08837527,0.0001748,53.2172,307.1621,87.1379,272.9813,2.4857e-05,1.08e-06,0.0,0 STARLINK-5002,1 53922U 22119AN  23284.06256540  .00000108  00000-0  24857-4 0  9992,2 53922  53.2172 307.1621 0001748  87.1379 272.9813 15.08837527 58469,6917.888,95.438,540.962,538.544,0.0
53922.0,STARLINK-5002,PAYLOAD,2023-10-11 07:51:38,15.08837093,0.0001815,53.2168,305.9714,89.4138,270.7062,-3.218e-05,-8e-06,0.0,0 STARLINK-5002,1 53922U 22119AN  23284.32752645 -.00000800  00000-0 -32180-4 0  9997,2 53922  53.2168 305.9714 0001815  89.4138 270.7062 15.08837093 58927,6917.889,95.438,541.01,538.499,0.0
53922.0,STARLINK-5002,PAYLOAD,2023-10-12 04:31:38,15.08841961,0.0001771,53.2166,302.1051,84.8689,275.2505,0.00015004,2.101e-05,0.0,0 STARLINK-5002,1 53922U 22119AN  23285.18864518  .00002101  00000-0  15004-3 0  9994,2 53922  53.2166 302.1051 0001771  84.8689 275.2505 15.08841961 58638,6917.874,95.437,540.965,538.514,0.0
53922.0,STARLINK-5002,PAYLOAD,2023-10-12 07:42:25,15.08844581,0.0001581,53.2159,301.5086,93.6837,266.4335,0.00017715,2.533e-05,0.0,0 STARLINK-5002,1 53922U 22119AN  23285.32112305  .00002533  00000-0  17715-3 0  9990,2 53922  53.2159 301.5086 0001581  93.6837 266.4335 15.08844581 59076,6917.866,95.437,540.825,538.638,0.0
53922.0,STARLINK-5002,PAYLOAD,2023-10-13 10:43:58,15.08843999,0.0001625,53.2156,296.4531,90.0533,270.0646,0.00017934,2.568e-05,0.0,0 STARLINK-5002,1 53922U 22119AN  23286.44720592  .00002568  00000-0  17934-3 0  9998,2 53922  53.2156 296.4531 0001625  90.0533 270.0646 15.08843999 58823,6917.868,95.437,540.857,538.609,0.0
53922.0,STARLINK-5002,PAYLOAD,2023-10-14 07:23:58,15.08852685,0.0001651,53.2155,292.5859,90.7283,269.3898,0.00020876,3.037e-05,0.0,0 STARLINK-5002,1 53922U 22119AN  23287.30832082  .00003037  00000-0  20876-3 0  9993,2 53922  53.2155 292.5859 0001651  90.7283 269.3898 15.08852685 59373,6917.842,95.437,540.849,538.564,0.0
53922.0,STARLINK-5002,PAYLOAD,2023-10-15 00:53:14,15.08820006,0.000142,53.2156,289.316,92.3814,267.7341,-0.00022871,-3.924e-05,0.0,0 STARLINK-5002,1 53922U 22119AN  23288.03697846 -.00003924  00000-0 -22871-3 0  9995,2 53922  53.2156 289.3160 0001420  92.3814 267.7341 15.08820006 59068,6917.942,95.439,540.789,538.824,0.0
53922.0,STARLINK-5002,PAYLOAD,2023-10-15 07:14:47,15.0882649,0.0001424,53.2161,288.1283,89.8645,270.251,-9.4527e-05,-1.791e-05,0.0,0 STARLINK-5002,1 53922U 22119AN  23288.30193819 -.00001791  00000-0 -94527-4 0  9994,2 53922  53.2161 288.1283 0001424  89.8645 270.2510 15.08826490 59109,6917.922,95.438,540.772,538.802,0.0
53922.0,STARLINK-5002,PAYLOAD,2023-10-15 16:47:06,15.08833231,0.0001431,53.216,286.3434,92.1403,267.9753,5.9597e-05,6.61e-06,0.0,0 STARLINK-5002,1 53922U 22119AN  23288.69937651  .00000661  00000-0  59597-4 0  9997,2 53922  53.2160 286.3434 0001431  92.1403 267.9753 15.08833231 59162,6917.901,95.438,540.756,538.776,0.0
53922.0,STARLINK-5002,PAYLOAD,2023-10-16 07:05:34,15.08864618,0.0001309,53.2157,283.6666,92.7959,267.3183,0.0014289,0.00022541,0.0,0 STARLINK-5002,1 53922U 22119AN  23289.29553441  .00022541  00000-0  14289-2 0  9993,2 53922  53.2157 283.6666 0001309  92.7959 267.3183 15.08864618 59255,6917.805,95.436,540.576,538.765,0.0
53922.0,STARLINK-5002,PAYLOAD,2023-10-16 10:16:20,15.08872058,0.0001309,53.2156,283.0725,93.6227,266.4914,0.0015716,0.00024835,0.0,0 STARLINK-5002,1 53922U 22119AN  23289.42801201  .00024835  00000-0  15716-2 0  9992,2 53922  53.2156 283.0725 0001309  93.6227 266.4914 15.08872058 59699,6917.782,95.436,540.553,538.742,0.0
53922.0,STARLINK-5002,PAYLOAD,2023-10-17 08:31:44,15.08855402,0.0001408,53.2154,278.909,82.1268,277.9884,0.0012633,0.00019883,0.0,0 STARLINK-5002,1 53922U 22119AN  23290.35537236  .00019883  00000-0  12633-2 0  9992,2 53922  53.2154 278.9090 0001408  82.1268 277.9884 15.08855402 59410,6917.833,95.437,540.672,538.724,0.0
